[{"OBJECT_NAME":"STARLINK-4796","OBJECT_ID":"2022-119Z","EPOCH":"2026-03-09T21:42:46.422144","MEAN_MOTION":15.08834839,"ECCENTRICITY":0.00013234,"INCLINATION":53.2179,"RA_OF_ASC_NODE":313.4174,"ARG_OF_PERICENTER":102.2266,"MEAN_ANOMALY":257.8874,"EPHEMERIS_TYPE":0,"CLASSIFICATION_TYPE":"U","NORAD_CAT_ID":53909,"ELEMENT_SET_NO":999,"REV_AT_EPOCH":19185,"BSTAR":-1.8195699e-5,"MEAN_MOTION_DOT":-5.77e-6,"MEAN_MOTION_DDOT":0},{"OBJECT_NAME":"FREGAT DEB","OBJECT_ID":"2011-037AB","EPOCH":"2026-03-09T00:44:47.826240","MEAN_MOTION":13.5498978,"ECCENTRICITY":0.08327263,"INCLINATION":51.2024,"RA_OF_ASC_NODE":351.4028,"ARG_OF_PERICENTER":105.3557,"MEAN_ANOMALY":264.0839,"EPHEMERIS_TYPE":0,"CLASSIFICATION_TYPE":"U","NORAD_CAT_ID":45635,"ELEMENT_SET_NO":999,"REV_AT_EPOCH":24756,"BSTAR":0.012231007,"MEAN_MOTION_DOT":0.00094296,"MEAN_MOTION_DDOT":0}]
